[{"OBJECT_NAME":"ONEWEB-0421","OBJECT_ID":"2021-132AD","EPOCH":"2026-03-09T18:24:51.777216","MEAN_MOTION":13.18685741,"ECCENTRICITY":0.00014802,"INCLINATION":87.925,"RA_OF_ASC_NODE":355.2026,"ARG_OF_PERICENTER":78.3043,"MEAN_ANOMALY":281.8255,"EPHEMERIS_TYPE":0,"CLASSIFICATION_TYPE":"U","NORAD_CAT_ID":50496,"ELEMENT_SET_NO":999,"REV_AT_EPOCH":20851,"BSTAR":-0.00020853405,"MEAN_MOTION_DOT":-6.9e-7,"MEAN_MOTION_DDOT":0},{"OBJECT_NAME":"SL-14 DEB","OBJECT_ID":"1991-056AB","EPOCH":"2026-03-09T15:39:35.112672","MEAN_MOTION":12.83026769,"ECCENTRICITY":0.0178367,"INCLINATION":82.5362,"RA_OF_ASC_NODE":298.1958,"ARG_OF_PERICENTER":91.7957,"MEAN_ANOMALY":270.3584,"EPHEMERIS_TYPE":0,"CLASSIFICATION_TYPE":"U","NORAD_CAT_ID":45289,"ELEMENT_SET_NO":999,"REV_AT_EPOCH":28349,"BSTAR":-0.00043032,"MEAN_MOTION_DOT":-9.6e-7,"MEAN_MOTION_DDOT":0}]
